[{"OBJECT_NAME":"PRAETORIAN SDA_621","OBJECT_ID":"2025-203V","EPOCH":"2026-03-09T14:20:07.156320","MEAN_MOTION":13.83787478,"ECCENTRICITY":0.0008673,"INCLINATION":81.2989,"RA_OF_ASC_NODE":102.9072,"ARG_OF_PERICENTER":96.3239,"MEAN_ANOMALY":263.8905,"EPHEMERIS_TYPE":0,"CLASSIFICATION_TYPE":"U","NORAD_CAT_ID":65584,"ELEMENT_SET_NO":999,"REV_AT_EPOCH":2492,"BSTAR":5.4754e-5,"MEAN_MOTION_DOT":7.3e-7,"MEAN_MOTION_DDOT":0},{"OBJECT_NAME":"SL-8 R\/B","OBJECT_ID":"1987-009B","EPOCH":"2026-03-09T22:29:36.299616","MEAN_MOTION":13.77044583,"ECCENTRICITY":0.00309244,"INCLINATION":82.9171,"RA_OF_ASC_NODE":51.4038,"ARG_OF_PERICENTER":277.3291,"MEAN_ANOMALY":139.3913,"EPHEMERIS_TYPE":0,"CLASSIFICATION_TYPE":"U","NORAD_CAT_ID":17360,"ELEMENT_SET_NO":999,"REV_AT_EPOCH":96464,"BSTAR":7.1598878e-5,"MEAN_MOTION_DOT":8.6e-7,"MEAN_MOTION_DDOT":0}]
